[
    {
        "Altitude(m)": 610405.275709024,
        "Argument of Periapsis(deg)": 0.0,
        "Eccentricity": 0.0,
        "Inclination(deg)": 60.0,
        "Latitude(deg)": 52.11114102281854,
        "Longitude(deg)": -102.52252896701364,
        "Mean Anomaly(deg)": 114.5455,
        "RAAN(deg)": 225.0,
        "Satellite Name": "Test1 997",
        "Satellite Number": 997,
        "Semi-Major Axis(m)": 6980739.136638005,
        "Time(s)": 0
    },
    {
        "Altitude(m)": 610321.8483411176,
        "Argument of Periapsis(deg)": 0.00010418945913296404,
        "Eccentricity": 0.0,
        "Inclination(deg)": 60.0,
        "Latitude(deg)": 51.745855443731685,
        "Longitude(deg)": -101.75363804944315,
        "Mean Anomaly(deg)": 115.16560614546188,
        "RAAN(deg)": 224.99957995086024,
        "Satellite Name": "Test1 997",
        "Satellite Number": 997,
        "Semi-Major Axis(m)": 6980739.136638005,
        "Time(s)": 10
    }
]